ONEWEB-0389             
1 50469U 21132A   25356.57118961  .00000013  00000+0 -33255-6 0  9990
2 50469  87.9103  40.9875 0001998 108.7349 251.4000 13.17648885194823
ONEWEB-0390             
1 50470U 21132B   25356.57286861  .00000020  00000+0  18683-4 0  9990
2 50470  87.9099  40.9890 0001534 100.8308 259.2996 13.17649962194827
ONEWEB-0391             
1 50471U 21132C   25356.57456906  .00000071  00000+0  15073-3 0  9995
2 50471  87.9099  40.9981 0001886 126.6288 233.5017 13.17647981194820
ONEWEB-0392             
1 50472U 21132D   25356.60493415  .00000070  00000+0  14675-3 0  9992
2 50472  87.9110  40.9452 0001877 110.5399 249.5934 13.17650603194867
ONEWEB-0393             
1 50473U 21132E   25356.57807150  .00000072  00000+0  15198-3 0  9997
2 50473  87.9108  40.9728 0001844 105.0707 255.0628 13.17649096194852
ONEWEB-0394             
1 50474U 21132F   25356.45734755  .00000031  00000+0  45392-4 0  9990
2 50474  87.9177  10.5359 0001892  96.3758 263.7590 13.18687389198309
ONEWEB-0395             
1 50475U 21132G   25356.54001989  .00000585  00000+0  16133-2 0  9990
2 50475  87.8844  56.2510 0001567 107.7666 252.3633 13.11416745192563
ONEWEB-0396             
1 50476U 21132H   25356.45075846 -.00000146  00000+0 -40317-3 0  9991
2 50476  87.9170  10.5491 0001787  95.0685 265.0651 13.18686550198345
ONEWEB-0397             
1 50477U 21132J   25356.54146458  .00000073  00000+0  15367-3 0  9994
2 50477  87.9173  10.5314 0001990  94.6917 265.4442 13.18687712198334
ONEWEB-0398             
1 50478U 21132K   25356.43150835 -.00000441  00000+0 -12798-2 0  9992
2 50478  87.8860  56.2467 0001360 105.8560 254.2719 13.11416138192447
ONEWEB-0399             
1 50479U 21132L   25356.18904238 -.00000090  00000+0 -28879-3 0  9997
2 50479  87.8852  56.3083 0002156 113.6857 246.4497 13.11414720192401
ONEWEB-0400             
1 50480U 21132M   25356.44415023 -.00000021  00000+0 -85824-4 0  9995
2 50480  87.9174  10.5405 0001566  91.8868 268.2444 13.18687410198319
ONEWEB-0401             
1 50481U 21132N   25356.56457706 -.00000017  00000+0 -76482-4 0  9998
2 50481  87.9172  10.5132 0001951  89.4511 270.6844 13.18685969198331
ONEWEB-0402             
1 50482U 21132P   25356.52828541  .00000062  00000+0  12558-3 0  9995
2 50482  87.9167  10.5130 0002320  84.6073 275.5324 13.18686547198357
ONEWEB-0403             
1 50483U 21132Q   25356.47715126  .00000031  00000+0  44775-4 0  9997
2 50483  87.9176  10.5447 0001762  95.4957 264.6376 13.18685800198301
ONEWEB-0404             
1 50484U 21132R   25356.39928929  .00000512  00000+0  14080-2 0  9994
2 50484  87.8843  56.2752 0001895 112.8837 247.2491 13.11414229192527
ONEWEB-0405             
1 50485U 21132S   25356.41612050 -.00000040  00000+0 -13458-3 0  9990
2 50485  87.9176  10.5405 0002076  93.4990 266.6379 13.18685534198692
ONEWEB-0406             
1 50486U 21132T   25356.40622050 -.00000038  00000+0 -12943-3 0  9996
2 50486  87.9177  10.5679 0001517 108.0431 252.0866 13.18686464198322
ONEWEB-0407             
1 50487U 21132U   25356.47549680  .00000060  00000+0  12014-3 0  9993
2 50487  87.9176  10.5374 0001821  86.2955 273.8385 13.18686582198272
ONEWEB-0409             
1 50488U 21132V   25356.47388970  .00000598  00000+0  16527-2 0  9995
2 50488  87.8859  56.2308 0001670 114.1854 245.9449 13.11414257192428
ONEWEB-0412             
1 50489U 21132W   25356.53981993  .00000013  00000+0  45830-6 0  9992
2 50489  87.9178  10.5381 0002128  89.1599 270.9777 13.18686846198378
ONEWEB-0413             
1 50490U 21132X   25356.01364378  .00000124  00000+0  28195-3 0  9994
2 50490  87.9167  10.6545 0002020  85.5276 274.6087 13.18684860198249
ONEWEB-0414             
1 50491U 21132Y   25356.52992581  .00000022  00000+0  23394-4 0  9998
2 50491  87.9176  10.5164 0002003  94.7507 265.3854 13.18687002198347
ONEWEB-0417             
1 50492U 21132Z   25356.53817722 -.00000091  00000+0 -26476-3 0  9994
2 50492  87.9174  10.5490 0001749  99.1155 261.0175 13.18686780198321
ONEWEB-0418             
1 50493U 21132AA  25356.47205850  .00000099  00000+0  21853-3 0  9991
2 50493  87.9175  10.5455 0001737 108.9728 251.1592 13.18685842198372
ONEWEB-0419             
1 50494U 21132AB  25356.49034038  .00000049  00000+0  91180-4 0  9998
2 50494  87.9173  10.5420 0001486  98.4474 261.6827 13.18687206198299
ONEWEB-0420             
1 50495U 21132AC  25356.53157846  .00000034  00000+0  52649-4 0  9998
2 50495  87.9177  10.5464 0001832  86.3881 273.7461 13.18685459198291
ONEWEB-0421             
1 50496U 21132AD  25356.44910848  .00000065  00000+0  13296-3 0  9996
2 50496  87.9171  10.5555 0002118  93.7673 266.3701 13.18686571198321
ONEWEB-0424             
1 50497U 21132AE  25356.48539204  .00000014  00000+0  35274-5 0  9990
2 50497  87.9171  10.5432 0001379  93.1419 266.9871 13.18687162198350
ONEWEB-0426             
1 50498U 21132AF  25356.44579561  .00000017  00000+0  10286-4 0  9995
2 50498  87.9178  10.5425 0002309 105.7541 254.3846 13.18687483198292
ONEWEB-0427             
1 50499U 21132AG  25356.48375109 -.00000004  00000+0 -43508-4 0  9993
2 50499  87.9172  10.5225 0001720  99.8014 260.3312 13.18685535198324
ONEWEB-0429             
1 50500U 21132AH  25356.47054890  .00000005  00000+0 -20068-4 0  9992
2 50500  87.9175  10.5571 0001769  87.7371 272.3964 13.18686077198293
ONEWEB-0430             
1 50501U 21132AJ  25356.45899422  .00000017  00000+0  11215-4 0  9995
2 50501  87.9181  10.5552 0001584  86.8609 273.2704 13.18687243198332
ONEWEB-0432             
1 50502U 21132AK  25356.49098744  .00000086  00000+0  18615-3 0  9994
2 50502  87.9172  10.5204 0001287 121.6573 238.4685 13.18678024198298
ONEWEB-0440             
1 50503U 21132AL  25356.55467717  .00000011  00000+0 -44183-5 0  9992
2 50503  87.9179  10.5262 0002184  86.8433 273.2949 13.18685534198298
ONEWEB-0450             
1 50504U 21132AM  25356.47234119  .00000091  00000+0  19929-3 0  9997
2 50504  87.9166  10.5643 0001758  80.7703 279.3628 13.18684148198311
ONEWEB-0410             
1 51622U 22012A   25356.51379415  .00000751  00000+0  18998-2 0  9998
2 51622  87.9119  40.9705 0002868 133.6680 226.4690 13.17659552190439
ONEWEB-0411             
1 51623U 22012B   25356.47445365 -.00000527  00000+0 -15474-2 0  9991
2 51623  87.8794  71.4948 0001211  95.7234 264.4031 13.10373723186140
ONEWEB-0415             
1 51624U 22012C   25356.47114128 -.00000588  00000+0 -17210-2 0  9999
2 51624  87.8798  71.4977 0001403 102.1701 257.9584 13.10372493186145
ONEWEB-0416             
1 51625U 22012D   25355.71918070 -.00000275  00000+0 -82359-3 0  9994
2 51625  87.8802  71.6682 0001320 113.0939 247.0328 13.10374598186086
ONEWEB-0422             
1 51626U 22012E   25356.14426763  .00000022  00000+0  24741-4 0  9996
2 51626  87.9110  41.0482 0002146  81.0500 279.0875 13.17649681190491
ONEWEB-0423             
1 51627U 22012F   25355.83377124 -.00000008  00000+0 -53904-4 0  9997
2 51627  87.9113  41.1200 0001941  97.3703 262.7649 13.17648806190341
ONEWEB-0425             
1 51628U 22012G   25356.49272157  .00000046  00000+0  96334-4 0  9995
2 51628  87.8811  71.4863 0001980 112.5100 247.6238 13.10376939186182
ONEWEB-0428             
1 51629U 22012H   25356.47279532 -.00000601  00000+0 -17583-2 0  9994
2 51629  87.8801  71.5082 0001774 102.4165 257.7161 13.10372400186148
ONEWEB-0431             
1 51630U 22012J   25356.21371807  .00000510  00000+0  14244-2 0  9994
2 51630  87.8809  71.5395 0001207  83.1357 276.9907 13.10371444186164
ONEWEB-0434             
1 51631U 22012K   25356.57254244  .00000002  00000+0 -29915-4 0  9999
2 51631  87.8803  71.5035 0002214 115.4556 244.6801 13.10373261186196
ONEWEB-0435             
1 51632U 22012L   25356.50434856  .00000588  00000+0  16471-2 0  9991
2 51632  87.8802  71.5075 0001882  91.1647 268.9696 13.10375653186177
ONEWEB-0436             
1 51633U 22012M   25356.50875812  .00000033  00000+0  53013-4 0  9993
2 51633  87.9109  40.9640 0001794  90.7099 269.4238 13.17648556190417
ONEWEB-0438             
1 51634U 22012N   25356.48773861 -.00000166  00000+0 -51093-3 0  9996
2 51634  87.8813  71.5121 0001785 109.1543 250.9778 13.10375392186206
ONEWEB-0439             
1 51635U 22012P   25356.49105517 -.00000054  00000+0 -19003-3 0  9996
2 51635  87.8811  71.4997 0001818 102.1238 258.0094 13.10377215186189
ONEWEB-0442             
1 51636U 22012Q   25356.19740666  .00000096  00000+0  21506-3 0  9999
2 51636  87.9098  41.0727 0001891 117.3891 242.7433 13.17647330190363
ONEWEB-0443             
1 51637U 22012R   25355.83714332  .00000033  00000+0  52052-4 0  9993
2 51637  87.9096  41.1490 0002104 101.9311 258.2057 13.17649047190365
ONEWEB-0444             
1 51638U 22012S   25356.48109713 -.00000673  00000+0 -19640-2 0  9993
2 51638  87.8803  71.5000 0001657 101.7316 258.3997 13.10373329186190
ONEWEB-0445             
1 51639U 22012T   25356.50265874 -.00000495  00000+0 -14540-2 0  9994
2 51639  87.8816  71.4650 0001607 110.2632 249.8668 13.10378230186204
ONEWEB-0446             
1 51640U 22012U   25356.25036196 -.00000454  00000+0 -13380-2 0  9997
2 51640  87.8800  71.5631 0001520 106.2866 253.8429 13.10375256186156
ONEWEB-0448             
1 51641U 22012V   25356.25534513 -.00000229  00000+0 -69297-3 0  9993
2 51641  87.8803  71.5616 0001751 102.1404 257.9920 13.10376750186120
ONEWEB-0449             
1 51642U 22012W   25356.48939336 -.00000099  00000+0 -32108-3 0  9997
2 51642  87.8811  71.4879 0002076 113.4539 246.6807 13.10376869186169
ONEWEB-0451             
1 51643U 22012X   25356.58131553  .00000127  00000+0  29378-3 0  9999
2 51643  87.9104  40.9449 0001904 101.8506 258.2839 13.17648107190404
ONEWEB-0452             
1 51644U 22012Y   25356.57963335  .00000090  00000+0  19805-3 0  9993
2 51644  87.9095  40.9988 0002075  99.8822 260.2544 13.17648438190413
